{"type": "FeatureCollection", "features": [ {"type": "Feature", "properties": {"norad_id": 34014, "name": "COSMOS 2251 DEB", "group": "cosmos-2251-debris", "lat": -7.591018233129738, "lon": -100.33419825538314, "alt_km": 636.1790570597459, "timestamp": "2025-12-22T09:53:37.793570+00:00", "meta": {"OBJECT_NAME": "COSMOS 2251 DEB", "OBJECT_ID": "1993-036GZ", "EPOCH": "2025-12-22T03:43:38.357184", "MEAN_MOTION": 14.73241983, "ECCENTRICITY": 0.0037434, "INCLINATION": 74.0173, "RA_OF_ASC_NODE": 262.3559, "ARG_OF_PERICENTER": 39.3733, "MEAN_ANOMALY": 31.0077, "EPHEMERIS_TYPE": 0, "CLASSIFICATION_TYPE": "U", "NORAD_CAT_ID": 34014, "ELEMENT_SET_NO": 999, "REV_AT_EPOCH": 89442, "BSTAR": 0.00089052, "MEAN_MOTION_DOT": 5.788e-05, "MEAN_MOTION_DDOT": 0}, "tle": {"line1": "1 34014U 93036GZ  25356.15530506  .00005788  00000+0  89052-3 0  9993", "line2": "2 34014  74.0173 262.3559 0037434  39.3733  31.0077 14.73241983894424"}}, "geometry": {"type": "Point", "coordinates": [-100.33419825538314, -7.591018233129738]}}, {"type": "Feature", "properties": {"norad_id": 34015, "name": "COSMOS 2251 DEB", "group": "cosmos-2251-debris", "lat": 19.83693914294257, "lon": 146.87723817771635, "alt_km": 703.5932935628007, "timestamp": "2025-12-22T09:53:37.793580+00:00", "meta": {"OBJECT_NAME": "COSMOS 2251 DEB", "OBJECT_ID": "1993-036HA", "EPOCH": "2025-12-21T15:46:09.424128", "MEAN_MOTION": 14.60357388, "ECCENTRICITY": 0.002092, "INCLINATION": 74.0239, "RA_OF_ASC_NODE": 142.3875, "ARG_OF_PERICENTER": 239.0667, "MEAN_ANOMALY": 132.939, "EPHEMERIS_TYPE": 0, "CLASSIFICATION_TYPE": "U", "NORAD_CAT_ID": 34015, "ELEMENT_SET_NO": 999, "REV_AT_EPOCH": 88661, "BSTAR": 0.001078, "MEAN_MOTION_DOT": 5.203e-05, "MEAN_MOTION_DDOT": 0}, "tle": {"line1": "1 34015U 93036HA  25355.65705352  .00005203  00000+0  10780-2 0  9994", "line2": "2 34015  74.0239 142.3875 0020920 239.0667 132.9390 14.60357388886617"}}, "geometry": {"type": "Point", "coordinates": [146.87723817771635, 19.83693914294257]}}, {"type": "Feature", "properties": {"norad_id": 34018, "name": "COSMOS 2251 DEB", "group": "cosmos-2251-debris", "lat": -66.9346991447968, "lon": 32.92230221059693, "alt_km": 1159.8890060504436, "timestamp": "2025-12-22T09:53:37.793590+00:00", "meta": {"OBJECT_NAME": "COSMOS 2251 DEB", "OBJECT_ID": "1993-036HD", "EPOCH": "2025-12-21T06:43:04.930752", "MEAN_MOTION": 13.81081009, "ECCENTRICITY": 0.0263277, "INCLINATION": 73.878, "RA_OF_ASC_NODE": 77.6238, "ARG_OF_PERICENTER": 111.8742, "MEAN_ANOMALY": 307.0391, "EPHEMERIS_TYPE": 0, "CLASSIFICATION_TYPE": "U", "NORAD_CAT_ID": 34018, "ELEMENT_SET_NO": 999, "REV_AT_EPOCH": 84775, "BSTAR": 0.00029152, "MEAN_MOTION_DOT": 3.79e-06, "MEAN_MOTION_DDOT": 0}, "tle": {"line1": "1 34018U 93036HD  25355.27991818  .00000379  00000+0  29152-3 0  9992", "line2": "2 34018  73.8780  77.6238 0263277 111.8742 307.0391 13.81081009847750"}}, "geometry": {"type": "Point", "coordinates": [32.92230221059693, -66.9346991447968]}}, {"type": "Feature", "properties": {"norad_id": 34019, "name": "COSMOS 2251 DEB", "group": "cosmos-2251-debris", "lat": 73.92642170892225, "lon": 125.66173175558556, "alt_km": 794.4487864913908, "timestamp": "2025-12-22T09:53:37.793600+00:00", "meta": {"OBJECT_NAME": "COSMOS 2251 DEB", "OBJECT_ID": "1993-036HE", "EPOCH": "2025-12-22T04:45:46.296864", "MEAN_MOTION": 14.33977679, "ECCENTRICITY": 0.0062344, "INCLINATION": 73.9533, "RA_OF_ASC_NODE": 33.3443, "ARG_OF_PERICENTER": 213.1296, "MEAN_ANOMALY": 215.0123, "EPHEMERIS_TYPE": 0, "CLASSIFICATION_TYPE": "U", "NORAD_CAT_ID": 34019, "ELEMENT_SET_NO": 999, "REV_AT_EPOCH": 87656, "BSTAR": 0.00066976, "MEAN_MOTION_DOT": 1.884e-05, "MEAN_MOTION_DDOT": 0}, "tle": {"line1": "1 34019U 93036HE  25356.19845251  .00001884  00000+0  66976-3 0  9991", "line2": "2 34019  73.9533  33.3443 0062344 213.1296 215.0123 14.33977679876564"}}, "geometry": {"type": "Point", "coordinates": [125.66173175558556, 73.92642170892225]}}, {"type": "Feature", "properties": {"norad_id": 34021, "name": "COSMOS 2251 DEB", "group": "cosmos-2251-debris", "lat": 26.15238469616158, "lon": 119.74803168530293, "alt_km": 734.545502631906, "timestamp": "2025-12-22T09:53:37.793610+00:00", "meta": {"OBJECT_NAME": "COSMOS 2251 DEB", "OBJECT_ID": "1993-036HG", "EPOCH": "2025-12-21T09:11:27.909888", "MEAN_MOTION": 14.4997632, "ECCENTRICITY": 0.00209884, "INCLINATION": 74.036, "RA_OF_ASC_NODE": 113.5998, "ARG_OF_PERICENTER": 256.8538, "MEAN_ANOMALY": 159.7796, "EPHEMERIS_TYPE": 0, "CLASSIFICATION_TYPE": "U", "NORAD_CAT_ID": 34021, "ELEMENT_SET_NO": 999, "REV_AT_EPOCH": 88755, "BSTAR": 0.00036322987, "MEAN_MOTION_DOT": 1.382e-05, "MEAN_MOTION_DDOT": 0}, "tle": {"line1": "1 34021U 93036HG  25355.38296192  .00001382  00000+0  36323-3 0  9994", "line2": "2 34021  74.0360 113.5998 0020988 256.8538 159.7796 14.49976320887554"}}, "geometry": {"type": "Point", "coordinates": [119.74803168530293, 26.15238469616158]}}, {"type": "Feature", "properties": {"norad_id": 34022, "name": "COSMOS 2251 DEB", "group": "cosmos-2251-debris", "lat": -0.8804276714474584, "lon": 73.22489878623827, "alt_km": 776.3157983634901, "timestamp": "2025-12-22T09:53:37.793620+00:00", "meta": {"OBJECT_NAME": "COSMOS 2251 DEB", "OBJECT_ID": "1993-036HH", "EPOCH": "2025-12-22T01:14:00.769056", "MEAN_MOTION": 14.38976268, "ECCENTRICITY": 0.0023003, "INCLINATION": 74.054, "RA_OF_ASC_NODE": 253.6378, "ARG_OF_PERICENTER": 317.0867, "MEAN_ANOMALY": 155.3613, "EPHEMERIS_TYPE": 0, "CLASSIFICATION_TYPE": "U", "NORAD_CAT_ID": 34022, "ELEMENT_SET_NO": 999, "REV_AT_EPOCH": 88329, "BSTAR": 0.00019128, "MEAN_MOTION_DOT": 5.65e-06, "MEAN_MOTION_DDOT": 0}, "tle": {"line1": "1 34022U 93036HH  25356.05139779  .00000565  00000+0  19128-3 0  9993", "line2": "2 34022  74.0540 253.6378 0023003 317.0867 155.3613 14.38976268883295"}}, "geometry": {"type": "Point", "coordinates": [73.22489878623827, -0.8804276714474584]}}, {"type": "Feature", "properties": {"norad_id": 34023, "name": "COSMOS 2251 DEB", "group": "cosmos-2251-debris", "lat": 22.83283902226766, "lon": 46.915623566192274, "alt_km": 769.1285418122252, "timestamp": "2025-12-22T09:53:37.793630+00:00", "meta": {"OBJECT_NAME": "COSMOS 2251 DEB", "OBJECT_ID": "1993-036HJ", "EPOCH": "2025-12-22T03:12:54.767808", "MEAN_MOTION": 14.40578955, "ECCENTRICITY": 0.0018815, "INCLINATION": 74.0242, "RA_OF_ASC_NODE": 234.3581, "ARG_OF_PERICENTER": 328.6587, "MEAN_ANOMALY": 184.8839, "EPHEMERIS_TYPE": 0, "CLASSIFICATION_TYPE": "U", "NORAD_CAT_ID": 34023, "ELEMENT_SET_NO": 999, "REV_AT_EPOCH": 88349, "BSTAR": 0.00024946, "MEAN_MOTION_DOT": 7.7e-06, "MEAN_MOTION_DDOT": 0}, "tle": {"line1": "1 34023U 93036HJ  25356.13396722  .00000770  00000+0  24946-3 0  9998", "line2": "2 34023  74.0242 234.3581 0018815 328.6587 184.8839 14.40578955883492"}}, "geometry": {"type": "Point", "coordinates": [46.915623566192274, 22.83283902226766]}}, {"type": "Feature", "properties": {"norad_id": 34024, "name": "COSMOS 2251 DEB", "group": "cosmos-2251-debris", "lat": -13.843884359366779, "lon": -65.77728645581666, "alt_km": 762.6024161080932, "timestamp": "2025-12-22T09:53:37.793640+00:00", "meta": {"OBJECT_NAME": "COSMOS 2251 DEB", "OBJECT_ID": "1993-036HK", "EPOCH": "2025-12-22T03:20:22.166880", "MEAN_MOTION": 14.35406067, "ECCENTRICITY": 0.0021449, "INCLINATION": 74.0468, "RA_OF_ASC_NODE": 298.7653, "ARG_OF_PERICENTER": 347.4676, "MEAN_ANOMALY": 27.5876, "EPHEMERIS_TYPE": 0, "CLASSIFICATION_TYPE": "U", "NORAD_CAT_ID": 34024, "ELEMENT_SET_NO": 999, "REV_AT_EPOCH": 88159, "BSTAR": 0.00016496, "MEAN_MOTION_DOT": 4.49e-06, "MEAN_MOTION_DDOT": 0}, "tle": {"line1": "1 34024U 93036HK  25356.13914545  .00000449  00000+0  16496-3 0  9992", "line2": "2 34024  74.0468 298.7653 0021449 347.4676  27.5876 14.35406067881593"}}, "geometry": {"type": "Point", "coordinates": [-65.77728645581666, -13.843884359366779]}}, {"type": "Feature", "properties": {"norad_id": 34026, "name": "COSMOS 2251 DEB", "group": "cosmos-2251-debris", "lat": -40.48424628585449, "lon": -53.19795367596991, "alt_km": 1175.3225873097635, "timestamp": "2025-12-22T09:53:37.793649+00:00", "meta": {"OBJECT_NAME": "COSMOS 2251 DEB", "OBJECT_ID": "1993-036HM", "EPOCH": "2025-12-21T08:31:12.086400", "MEAN_MOTION": 13.6531918, "ECCENTRICITY": 0.03498541, "INCLINATION": 73.7668, "RA_OF_ASC_NODE": 322.9589, "ARG_OF_PERICENTER": 191.6609, "MEAN_ANOMALY": 328.0725, "EPHEMERIS_TYPE": 0, "CLASSIFICATION_TYPE": "U", "NORAD_CAT_ID": 34026, "ELEMENT_SET_NO": 999, "REV_AT_EPOCH": 83649, "BSTAR": 0.000378261, "MEAN_MOTION_DOT": 4.44e-06, "MEAN_MOTION_DDOT": 0}, "tle": {"line1": "1 34026U 93036HM  25355.35500100  .00000444  00000+0  37826-3 0  9990", "line2": "2 34026  73.7668 322.9589 0349854 191.6609 328.0725 13.65319180836491"}}, "geometry": {"type": "Point", "coordinates": [-53.19795367596991, -40.48424628585449]}}, {"type": "Feature", "properties": {"norad_id": 34028, "name": "COSMOS 2251 DEB", "group": "cosmos-2251-debris", "lat": -39.37502006581618, "lon": 166.14677283444678, "alt_km": 1327.083205508553, "timestamp": "2025-12-22T09:53:37.793660+00:00", "meta": {"OBJECT_NAME": "COSMOS 2251 DEB", "OBJECT_ID": "1993-036HP", "EPOCH": "2025-12-21T22:04:55.757856", "MEAN_MOTION": 13.20630333, "ECCENTRICITY": 0.0543512, "INCLINATION": 73.8836, "RA_OF_ASC_NODE": 333.1756, "ARG_OF_PERICENTER": 109.4454, "MEAN_ANOMALY": 286.9669, "EPHEMERIS_TYPE": 0, "CLASSIFICATION_TYPE": "U", "NORAD_CAT_ID": 34028, "ELEMENT_SET_NO": 999, "REV_AT_EPOCH": 81129, "BSTAR": 0.00047788, "MEAN_MOTION_DOT": 4.05e-06, "MEAN_MOTION_DDOT": 0}, "tle": {"line1": "1 34028U 93036HP  25355.92008979  .00000405  00000+0  47788-3 0  9997", "line2": "2 34028  73.8836 333.1756 0543512 109.4454 286.9669 13.20630333811290"}}, "geometry": {"type": "Point", "coordinates": [166.14677283444678, -39.37502006581618]}}]}